{"type": "FeatureCollection", "features": [ {"type": "Feature", "properties": {"norad_id": 31057, "name": "FENGYUN 1C DEB", "group": "fengyun-1c-debris", "lat": -5.838572874840979, "lon": 29.560071929428446, "alt_km": 664.6199564251938, "timestamp": "2025-12-14T20:40:32.052018+00:00", "meta": {"OBJECT_NAME": "FENGYUN 1C DEB", "OBJECT_ID": "1999-025BFB", "EPOCH": "2025-12-07T08:31:09.738912", "MEAN_MOTION": 14.79274467, "ECCENTRICITY": 0.0137797, "INCLINATION": 99.2572, "RA_OF_ASC_NODE": 19.9678, "ARG_OF_PERICENTER": 268.7892, "MEAN_ANOMALY": 89.7526, "EPHEMERIS_TYPE": 0, "CLASSIFICATION_TYPE": "U", "NORAD_CAT_ID": 31057, "ELEMENT_SET_NO": 999, "REV_AT_EPOCH": 61873, "BSTAR": 0.0014079461, "MEAN_MOTION_DOT": 0.00012236, "MEAN_MOTION_DDOT": 0}, "tle": {"line1": "1 31057U 99025BFB 25341.35497383  .00012236  00000+0  14079-2 0  9994", "line2": "2 31057  99.2572  19.9678 0137797 268.7892  89.7526 14.79274467618731"}}, "geometry": {"type": "Point", "coordinates": [29.560071929428446, -5.838572874840979]}}, {"type": "Feature", "properties": {"norad_id": 31058, "name": "FENGYUN 1C DEB", "group": "fengyun-1c-debris", "lat": 44.08241315147901, "lon": 127.92459561230213, "alt_km": 582.3854884864195, "timestamp": "2025-12-14T20:40:32.052028+00:00", "meta": {"OBJECT_NAME": "FENGYUN 1C DEB", "OBJECT_ID": "1999-025BFC", "EPOCH": "2025-12-13T01:46:58.731168", "MEAN_MOTION": 14.76336624, "ECCENTRICITY": 0.00951509, "INCLINATION": 99.5659, "RA_OF_ASC_NODE": 296.4111, "ARG_OF_PERICENTER": 105.1119, "MEAN_ANOMALY": 256.0635, "EPHEMERIS_TYPE": 0, "CLASSIFICATION_TYPE": "U", "NORAD_CAT_ID": 31058, "ELEMENT_SET_NO": 999, "REV_AT_EPOCH": 99554, "BSTAR": 0.0017482376, "MEAN_MOTION_DOT": 0.00013017, "MEAN_MOTION_DDOT": 0}, "tle": {"line1": "1 31058U 99025BFC 25347.07429087  .00013017  00000+0  17482-2 0  9995", "line2": "2 31058  99.5659 296.4111 0095150 105.1119 256.0635 14.76336624995545"}}, "geometry": {"type": "Point", "coordinates": [127.92459561230213, 44.08241315147901]}}, {"type": "Feature", "properties": {"norad_id": 31062, "name": "FENGYUN 1C DEB", "group": "fengyun-1c-debris", "lat": -71.64943917479783, "lon": -37.39692237888579, "alt_km": 918.6058644332434, "timestamp": "2025-12-14T20:40:32.052038+00:00", "meta": {"OBJECT_NAME": "FENGYUN 1C DEB", "OBJECT_ID": "1999-025BFG", "EPOCH": "2025-12-13T19:03:33.310656", "MEAN_MOTION": 13.75692343, "ECCENTRICITY": 0.01715681, "INCLINATION": 98.9966, "RA_OF_ASC_NODE": 170.1242, "ARG_OF_PERICENTER": 315.0612, "MEAN_ANOMALY": 57.3133, "EPHEMERIS_TYPE": 0, "CLASSIFICATION_TYPE": "U", "NORAD_CAT_ID": 31062, "ELEMENT_SET_NO": 999, "REV_AT_EPOCH": 94248, "BSTAR": 0.00037169447, "MEAN_MOTION_DOT": 3.57e-06, "MEAN_MOTION_DDOT": 0}, "tle": {"line1": "1 31062U 99025BFG 25347.79413554  .00000357  00000+0  37169-3 0  9999", "line2": "2 31062  98.9966 170.1242 0171568 315.0612  57.3133 13.75692343942486"}}, "geometry": {"type": "Point", "coordinates": [-37.39692237888579, -71.64943917479783]}}, {"type": "Feature", "properties": {"norad_id": 31064, "name": "FENGYUN 1C DEB", "group": "fengyun-1c-debris", "lat": 43.707452238970326, "lon": -36.80138340935887, "alt_km": 697.9248712337712, "timestamp": "2025-12-14T20:40:32.052048+00:00", "meta": {"OBJECT_NAME": "FENGYUN 1C DEB", "OBJECT_ID": "1999-025BFJ", "EPOCH": "2025-12-14T05:19:47.496000", "MEAN_MOTION": 14.22139589, "ECCENTRICITY": 0.02414256, "INCLINATION": 98.5739, "RA_OF_ASC_NODE": 330.8677, "ARG_OF_PERICENTER": 357.3275, "MEAN_ANOMALY": 13.3151, "EPHEMERIS_TYPE": 0, "CLASSIFICATION_TYPE": "U", "NORAD_CAT_ID": 31064, "ELEMENT_SET_NO": 999, "REV_AT_EPOCH": 97276, "BSTAR": 0.00052333494, "MEAN_MOTION_DOT": 1.513e-05, "MEAN_MOTION_DDOT": 0}, "tle": {"line1": "1 31064U 99025BFJ 25348.22207750  .00001513  00000+0  52333-3 0  9994", "line2": "2 31064  98.5739 330.8677 0241425 357.3275  13.3151 14.22139589972760"}}, "geometry": {"type": "Point", "coordinates": [-36.80138340935887, 43.707452238970326]}}, {"type": "Feature", "properties": {"norad_id": 31065, "name": "FENGYUN 1C DEB", "group": "fengyun-1c-debris", "lat": 18.056459922026452, "lon": 5.121965250381713, "alt_km": 773.046753709832, "timestamp": "2025-12-14T20:40:32.052058+00:00", "meta": {"OBJECT_NAME": "FENGYUN 1C DEB", "OBJECT_ID": "1999-025BFK", "EPOCH": "2025-12-13T07:35:59.491392", "MEAN_MOTION": 14.28179261, "ECCENTRICITY": 0.00351676, "INCLINATION": 98.4666, "RA_OF_ASC_NODE": 6.4073, "ARG_OF_PERICENTER": 29.7365, "MEAN_ANOMALY": 330.5806, "EPHEMERIS_TYPE": 0, "CLASSIFICATION_TYPE": "U", "NORAD_CAT_ID": 31065, "ELEMENT_SET_NO": 999, "REV_AT_EPOCH": 64586, "BSTAR": 0.0013755, "MEAN_MOTION_DOT": 3.406e-05, "MEAN_MOTION_DDOT": 0}, "tle": {"line1": "1 31065U 99025BFK 25347.31666078  .00003406  00000+0  13755-2 0  9993", "line2": "2 31065  98.4666   6.4073 0035167  29.7365 330.5806 14.28179261645865"}}, "geometry": {"type": "Point", "coordinates": [5.121965250381713, 18.056459922026452]}}, {"type": "Feature", "properties": {"norad_id": 31068, "name": "FENGYUN 1C DEB", "group": "fengyun-1c-debris", "lat": -80.55722047685546, "lon": 36.86447590877412, "alt_km": 983.0929641719567, "timestamp": "2025-12-14T20:40:32.052067+00:00", "meta": {"OBJECT_NAME": "FENGYUN 1C DEB", "OBJECT_ID": "1999-025BFN", "EPOCH": "2025-12-08T16:50:26.088576", "MEAN_MOTION": 14.0918717, "ECCENTRICITY": 0.01655633, "INCLINATION": 98.6287, "RA_OF_ASC_NODE": 325.0408, "ARG_OF_PERICENTER": 129.6248, "MEAN_ANOMALY": 231.9669, "EPHEMERIS_TYPE": 0, "CLASSIFICATION_TYPE": "U", "NORAD_CAT_ID": 31068, "ELEMENT_SET_NO": 999, "REV_AT_EPOCH": 96298, "BSTAR": 0.00020953749, "MEAN_MOTION_DOT": 3.73e-06, "MEAN_MOTION_DDOT": 0}, "tle": {"line1": "1 31068U 99025BFN 25342.70169084  .00000373  00000+0  20954-3 0  9999", "line2": "2 31068  98.6287 325.0408 0165563 129.6248 231.9669 14.09187170962988"}}, "geometry": {"type": "Point", "coordinates": [36.86447590877412, -80.55722047685546]}}, {"type": "Feature", "properties": {"norad_id": 31069, "name": "FENGYUN 1C DEB", "group": "fengyun-1c-debris", "lat": -80.79993679021757, "lon": -128.96289785156478, "alt_km": 779.10605420725, "timestamp": "2025-12-14T20:40:32.052077+00:00", "meta": {"OBJECT_NAME": "FENGYUN 1C DEB", "OBJECT_ID": "1999-025BFP", "EPOCH": "2025-12-14T06:15:11.146752", "MEAN_MOTION": 14.57122356, "ECCENTRICITY": 0.01045155, "INCLINATION": 99.0993, "RA_OF_ASC_NODE": 148.6864, "ARG_OF_PERICENTER": 72.8451, "MEAN_ANOMALY": 288.4157, "EPHEMERIS_TYPE": 0, "CLASSIFICATION_TYPE": "U", "NORAD_CAT_ID": 31069, "ELEMENT_SET_NO": 999, "REV_AT_EPOCH": 98708, "BSTAR": 0.00080320029, "MEAN_MOTION_DOT": 3.844e-05, "MEAN_MOTION_DDOT": 0}, "tle": {"line1": "1 31069U 99025BFP 25348.26054568  .00003844  00000+0  80320-3 0  9996", "line2": "2 31069  99.0993 148.6864 0104515  72.8451 288.4157 14.57122356987083"}}, "geometry": {"type": "Point", "coordinates": [-128.96289785156478, -80.79993679021757]}}, {"type": "Feature", "properties": {"norad_id": 31071, "name": "FENGYUN 1C DEB", "group": "fengyun-1c-debris", "lat": -24.68726417004918, "lon": 70.96865145218644, "alt_km": 702.4196943616962, "timestamp": "2025-12-14T20:40:32.052087+00:00", "meta": {"OBJECT_NAME": "FENGYUN 1C DEB", "OBJECT_ID": "1999-025BFR", "EPOCH": "2025-12-13T11:43:41.189952", "MEAN_MOTION": 14.52642169, "ECCENTRICITY": 0.00557127, "INCLINATION": 99.0416, "RA_OF_ASC_NODE": 65.2927, "ARG_OF_PERICENTER": 279.4703, "MEAN_ANOMALY": 80.0196, "EPHEMERIS_TYPE": 0, "CLASSIFICATION_TYPE": "U", "NORAD_CAT_ID": 31071, "ELEMENT_SET_NO": 999, "REV_AT_EPOCH": 65505, "BSTAR": 0.0017988097, "MEAN_MOTION_DOT": 7.47e-05, "MEAN_MOTION_DDOT": 0}, "tle": {"line1": "1 31071U 99025BFR 25347.48867118  .00007470  00000+0  17988-2 0  9993", "line2": "2 31071  99.0416  65.2927 0055712 279.4703  80.0196 14.52642169655051"}}, "geometry": {"type": "Point", "coordinates": [70.96865145218644, -24.68726417004918]}}, {"type": "Feature", "properties": {"norad_id": 31072, "name": "FENGYUN 1C DEB", "group": "fengyun-1c-debris", "lat": -12.813665966104143, "lon": -3.475399283177234, "alt_km": 846.3030839875246, "timestamp": "2025-12-14T20:40:32.052097+00:00", "meta": {"OBJECT_NAME": "FENGYUN 1C DEB", "OBJECT_ID": "1999-025BFS", "EPOCH": "2025-12-12T23:15:11.625120", "MEAN_MOTION": 14.25484049, "ECCENTRICITY": 0.02104692, "INCLINATION": 99.3329, "RA_OF_ASC_NODE": 352.3667, "ARG_OF_PERICENTER": 97.0999, "MEAN_ANOMALY": 265.4161, "EPHEMERIS_TYPE": 0, "CLASSIFICATION_TYPE": "U", "NORAD_CAT_ID": 31072, "ELEMENT_SET_NO": 999, "REV_AT_EPOCH": 96646, "BSTAR": 0.0008693152, "MEAN_MOTION_DOT": 2.539e-05, "MEAN_MOTION_DDOT": 0}, "tle": {"line1": "1 31072U 99025BFS 25346.96888455  .00002539  00000+0  86932-3 0  9990", "line2": "2 31072  99.3329 352.3667 0210469  97.0999 265.4161 14.25484049966464"}}, "geometry": {"type": "Point", "coordinates": [-3.475399283177234, -12.813665966104143]}}, {"type": "Feature", "properties": {"norad_id": 31073, "name": "FENGYUN 1C DEB", "group": "fengyun-1c-debris", "lat": -20.66090178070109, "lon": -157.82827809463845, "alt_km": 797.6238089348426, "timestamp": "2025-12-14T20:40:32.052107+00:00", "meta": {"OBJECT_NAME": "FENGYUN 1C DEB", "OBJECT_ID": "1999-025BFT", "EPOCH": "2025-12-13T12:45:04.677696", "MEAN_MOTION": 14.24806059, "ECCENTRICITY": 0.00454376, "INCLINATION": 99.2205, "RA_OF_ASC_NODE": 197.2639, "ARG_OF_PERICENTER": 283.3853, "MEAN_ANOMALY": 76.2261, "EPHEMERIS_TYPE": 0, "CLASSIFICATION_TYPE": "U", "NORAD_CAT_ID": 31073, "ELEMENT_SET_NO": 999, "REV_AT_EPOCH": 97094, "BSTAR": 0.0018876513, "MEAN_MOTION_DOT": 4.403e-05, "MEAN_MOTION_DDOT": 0}, "tle": {"line1": "1 31073U 99025BFT 25347.53130414  .00004403  00000+0  18877-2 0  9994", "line2": "2 31073  99.2205 197.2639 0045437 283.3853  76.2261 14.24806059970947"}}, "geometry": {"type": "Point", "coordinates": [-157.82827809463845, -20.66090178070109]}}]}